{
  "type": "FeatureCollection",
  "features": [
    {
      "type": "Feature",
      "properties": {
        "norad_id": 41330,
        "name": "COSMOS 2514 (751)",
        "group": "gnss",
        "lat": -64.88973496063538,
        "lon": -122.7338341077945,
        "alt_km": 19119.082630783785,
        "timestamp": "2025-12-27T21:25:02.754709+00:00",
        "meta_object_name": "COSMOS 2514 (751)",
        "meta_object_id": "2016-008A",
        "meta_epoch": "2025-12-27T01:35:56.250528",
        "meta_mean_motion": 2.13102531,
        "meta_eccentricity": 0.00114841,
        "meta_inclination": 65.1254,
        "meta_ra_of_asc_node": 318.9135,
        "meta_arg_of_pericenter": 219.9795,
        "meta_mean_anomaly": 139.9404,
        "meta_ephemeris_type": 0,
        "meta_classification_type": "U",
        "meta_norad_cat_id": 41330,
        "meta_element_set_no": 999,
        "meta_rev_at_epoch": 7695,
        "meta_bstar": 0,
        "meta_mean_motion_dot": -3.7e-07,
        "meta_mean_motion_ddot": 0,
        "tle_line1": "1 41330U 16008A   25361.06662327 -.00000037  00000+0  00000+0 0  9994",
        "tle_line2": "2 41330  65.1254 318.9135 0011484 219.9795 139.9404  2.13102531 76951"
      },
      "geometry": {
        "type": "Point",
        "coordinates": [
          -122.7338341077945,
          -64.88973496063538
        ]
      }
    },
    {
      "type": "Feature",
      "properties": {
        "norad_id": 41384,
        "name": "IRNSS-1F",
        "group": "gnss",
        "lat": -0.879285243556227,
        "lon": 90.42946683631746,
        "alt_km": 35877.91944422733,
        "timestamp": "2025-12-27T21:25:02.754721+00:00",
        "meta_object_name": "IRNSS-1F",
        "meta_object_id": "2016-015A",
        "meta_epoch": "2025-12-26T23:27:37.637280",
        "meta_mean_motion": 1.00265593,
        "meta_eccentricity": 0.00217373,
        "meta_inclination": 4.917,
        "meta_ra_of_asc_node": 100.9484,
        "meta_arg_of_pericenter": 181.1315,
        "meta_mean_anomaly": 198.0284,
        "meta_ephemeris_type": 0,
        "meta_classification_type": "U",
        "meta_norad_cat_id": 41384,
        "meta_element_set_no": 999,
        "meta_rev_at_epoch": 3594,
        "meta_bstar": 0,
        "meta_mean_motion_dot": 1.79e-06,
        "meta_mean_motion_ddot": 0,
        "tle_line1": "1 41384U 16015A   25360.97751895  .00000179  00000+0  00000+0 0  9995",
        "tle_line2": "2 41384   4.9170 100.9484 0021737 181.1315 198.0284  1.00265593 35943"
      },
      "geometry": {
        "type": "Point",
        "coordinates": [
          90.42946683631746,
          -0.879285243556227
        ]
      }
    },
    {
      "type": "Feature",
      "properties": {
        "norad_id": 41434,
        "name": "BEIDOU-2 IGSO-6 (C13)",
        "group": "gnss",
        "lat": 53.79710795828529,
        "lon": 167.64950910300848,
        "alt_km": 35900.34846454739,
        "timestamp": "2025-12-27T21:25:02.754732+00:00",
        "meta_object_name": "BEIDOU-2 IGSO-6 (C13)",
        "meta_object_id": "2016-021A",
        "meta_epoch": "2025-12-25T02:21:14.682240",
        "meta_mean_motion": 1.00290736,
        "meta_eccentricity": 0.00608236,
        "meta_inclination": 59.9818,
        "meta_ra_of_asc_node": 39.7747,
        "meta_arg_of_pericenter": 230.5129,
        "meta_mean_anomaly": 312.5474,
        "meta_ephemeris_type": 0,
        "meta_classification_type": "U",
        "meta_norad_cat_id": 41434,
        "meta_element_set_no": 999,
        "meta_rev_at_epoch": 3573,
        "meta_bstar": 0,
        "meta_mean_motion_dot": -1.35e-06,
        "meta_mean_motion_ddot": 0,
        "tle_line1": "1 41434U 16021A   25359.09808660 -.00000135  00000+0  00000+0 0  9995",
        "tle_line2": "2 41434  59.9818  39.7747 0060823 230.5129 312.5474  1.00290736 35738"
      },
      "geometry": {
        "type": "Point",
        "coordinates": [
          167.64950910300848,
          53.79710795828529
        ]
      }
    },
    {
      "type": "Feature",
      "properties": {
        "norad_id": 41469,
        "name": "IRNSS-1G",
        "group": "gnss",
        "lat": 4.761497803448586,
        "lon": -172.53236323671925,
        "alt_km": 35791.057689555564,
        "timestamp": "2025-12-27T21:25:02.754745+00:00",
        "meta_object_name": "IRNSS-1G",
        "meta_object_id": "2016-027A",
        "meta_epoch": "2025-12-27T10:56:21.825024",
        "meta_mean_motion": 1.00272659,
        "meta_eccentricity": 0.0002741,
        "meta_inclination": 4.7706,
        "meta_ra_of_asc_node": 101.722,
        "meta_arg_of_pericenter": 325.6609,
        "meta_mean_anomaly": 322.4712,
        "meta_ephemeris_type": 0,
        "meta_classification_type": "U",
        "meta_norad_cat_id": 41469,
        "meta_element_set_no": 999,
        "meta_rev_at_epoch": 3545,
        "meta_bstar": 0,
        "meta_mean_motion_dot": -3.13e-06,
        "meta_mean_motion_ddot": 0,
        "tle_line1": "1 41469U 16027A   25361.45580816 -.00000313  00000+0  00000+0 0  9990",
        "tle_line2": "2 41469   4.7706 101.7220 0002741 325.6609 322.4712  1.00272659 35458"
      },
      "geometry": {
        "type": "Point",
        "coordinates": [
          -172.53236323671925,
          4.761497803448586
        ]
      }
    },
    {
      "type": "Feature",
      "properties": {
        "norad_id": 41549,
        "name": "GSAT0211 (GALILEO 14)",
        "group": "gnss",
        "lat": -40.44244560659586,
        "lon": 82.83997086051224,
        "alt_km": 23236.633070995216,
        "timestamp": "2025-12-27T21:25:02.754759+00:00",
        "meta_object_name": "GSAT0211 (GALILEO 14)",
        "meta_object_id": "2016-030A",
        "meta_epoch": "2025-12-25T18:06:09.128448",
        "meta_mean_motion": 1.70473226,
        "meta_eccentricity": 0.00039908,
        "meta_inclination": 55.1481,
        "meta_ra_of_asc_node": 226.465,
        "meta_arg_of_pericenter": 16.0221,
        "meta_mean_anomaly": 344.0794,
        "meta_ephemeris_type": 0,
        "meta_classification_type": "U",
        "meta_norad_cat_id": 41549,
        "meta_element_set_no": 999,
        "meta_rev_at_epoch": 5971,
        "meta_bstar": 0,
        "meta_mean_motion_dot": 7e-07,
        "meta_mean_motion_ddot": 0,
        "tle_line1": "1 41549U 16030A   25359.75427232  .00000070  00000+0  00000+0 0  9994",
        "tle_line2": "2 41549  55.1481 226.4650 0003990  16.0221 344.0794  1.70473226 59712"
      },
      "geometry": {
        "type": "Point",
        "coordinates": [
          82.83997086051224,
          -40.44244560659586
        ]
      }
    },
    {
      "type": "Feature",
      "properties": {
        "norad_id": 41550,
        "name": "GSAT0210 (GALILEO 13)",
        "group": "gnss",
        "lat": 52.16363361821689,
        "lon": -69.83553540699377,
        "alt_km": 23216.896112484847,
        "timestamp": "2025-12-27T21:25:02.754774+00:00",
        "meta_object_name": "GSAT0210 (GALILEO 13)",
        "meta_object_id": "2016-030B",
        "meta_epoch": "2025-12-26T00:16:47.841312",
        "meta_mean_motion": 1.70473562,
        "meta_eccentricity": 5.77e-05,
        "meta_inclination": 55.1475,
        "meta_ra_of_asc_node": 226.456,
        "meta_arg_of_pericenter": 190.7717,
        "meta_mean_anomaly": 169.315,
        "meta_ephemeris_type": 0,
        "meta_classification_type": "U",
        "meta_norad_cat_id": 41550,
        "meta_element_set_no": 999,
        "meta_rev_at_epoch": 5971,
        "meta_bstar": 0,
        "meta_mean_motion_dot": 7e-07,
        "meta_mean_motion_ddot": 0,
        "tle_line1": "1 41550U 16030B   25360.01166483  .00000070  00000+0  00000+0 0  9995",
        "tle_line2": "2 41550  55.1475 226.4560 0000577 190.7717 169.3150  1.70473562 59712"
      },
      "geometry": {
        "type": "Point",
        "coordinates": [
          -69.83553540699377,
          52.16363361821689
        ]
      }
    },
    {
      "type": "Feature",
      "properties": {
        "norad_id": 41586,
        "name": "BEIDOU-2 G7 (C03)",
        "group": "gnss",
        "lat": 1.7686062602781327,
        "lon": 168.38344594935555,
        "alt_km": 35785.30688391206,
        "timestamp": "2025-12-27T21:25:02.754787+00:00",
        "meta_object_name": "BEIDOU-2 G7 (C03)",
        "meta_object_id": "2016-037A",
        "meta_epoch": "2025-12-27T11:48:49.644864",
        "meta_mean_motion": 1.00277493,
        "meta_eccentricity": 0.0005217,
        "meta_inclination": 1.7909,
        "meta_ra_of_asc_node": 67.9201,
        "meta_arg_of_pericenter": 7.7037,
        "meta_mean_anomaly": 308.2431,
        "meta_ephemeris_type": 0,
        "meta_classification_type": "U",
        "meta_norad_cat_id": 41586,
        "meta_element_set_no": 999,
        "meta_rev_at_epoch": 516,
        "meta_bstar": 0,
        "meta_mean_motion_dot": -3.32e-06,
        "meta_mean_motion_ddot": 0,
        "tle_line1": "1 41586U 16037A   25361.49224126 -.00000332  00000+0  00000+0 0  9995",
        "tle_line2": "2 41586   1.7909  67.9201 0005217   7.7037 308.2431  1.00277493  5162"
      },
      "geometry": {
        "type": "Point",
        "coordinates": [
          168.38344594935555,
          1.7686062602781327
        ]
      }
    }
  ]
}